[{"OBJECT_NAME":"ONEWEB-0371","OBJECT_ID":"2021-090U","EPOCH":"2025-07-31T04:21:26.987904","MEAN_MOTION":13.19725536,"ECCENTRICITY":0.0001829,"INCLINATION":87.9236,"RA_OF_ASC_NODE":8.7764,"ARG_OF_PERICENTER":90.3851,"MEAN_ANOMALY":269.7491,"EPHEMERIS_TYPE":0,"CLASSIFICATION_TYPE":"U","NORAD_CAT_ID":49297,"ELEMENT_SET_NO":999,"REV_AT_EPOCH":18540,"BSTAR":-0.00010927,"MEAN_MOTION_DOT":-3.1e-7,"MEAN_MOTION_DDOT":0},{"OBJECT_NAME":"ONEWEB-0372","OBJECT_ID":"2021-090V","EPOCH":"2025-07-30T21:02:35.826720","MEAN_MOTION":13.20771121,"ECCENTRICITY":0.0001988,"INCLINATION":87.9286,"RA_OF_ASC_NODE":338.4642,"ARG_OF_PERICENTER":95.6765,"MEAN_ANOMALY":264.4595,"EPHEMERIS_TYPE":0,"CLASSIFICATION_TYPE":"U","NORAD_CAT_ID":49298,"ELEMENT_SET_NO":999,"REV_AT_EPOCH":18742,"BSTAR":-8.5309e-5,"MEAN_MOTION_DOT":-2.2e-7,"MEAN_MOTION_DDOT":0},{"OBJECT_NAME":"ONEWEB-0373","OBJECT_ID":"2021-090W","EPOCH":"2025-07-31T03:08:39.962976","MEAN_MOTION":13.20771276,"ECCENTRICITY":0.0001835,"INCLINATION":87.9285,"RA_OF_ASC_NODE":338.425,"ARG_OF_PERICENTER":100.8676,"MEAN_ANOMALY":259.2664,"EPHEMERIS_TYPE":0,"CLASSIFICATION_TYPE":"U","NORAD_CAT_ID":49299,"ELEMENT_SET_NO":999,"REV_AT_EPOCH":18994,"BSTAR":7.6583e-5,"MEAN_MOTION_DOT":4.4e-7,"MEAN_MOTION_DDOT":0},{"OBJECT_NAME":"ONEWEB-0374","OBJECT_ID":"2021-090X","EPOCH":"2025-07-31T04:56:51.938880","MEAN_MOTION":13.14501327,"ECCENTRICITY":0.0002245,"INCLINATION":87.906,"RA_OF_ASC_NODE":353.5697,"ARG_OF_PERICENTER":109.8352,"MEAN_ANOMALY":250.3019,"EPHEMERIS_TYPE":0,"CLASSIFICATION_TYPE":"U","NORAD_CAT_ID":49300,"ELEMENT_SET_NO":999,"REV_AT_EPOCH":18668,"BSTAR":-0.00016313,"MEAN_MOTION_DOT":-4.8e-7,"MEAN_MOTION_DDOT":0},{"OBJECT_NAME":"ONEWEB-0375","OBJECT_ID":"2021-090Y","EPOCH":"2025-07-31T02:50:30.490944","MEAN_MOTION":13.20771212,"ECCENTRICITY":0.0001944,"INCLINATION":87.9289,"RA_OF_ASC_NODE":338.4061,"ARG_OF_PERICENTER":117.3973,"MEAN_ANOMALY":242.7358,"EPHEMERIS_TYPE":0,"CLASSIFICATION_TYPE":"U","NORAD_CAT_ID":49301,"ELEMENT_SET_NO":999,"REV_AT_EPOCH":18943,"BSTAR":0.00019966,"MEAN_MOTION_DOT":9.4e-7,"MEAN_MOTION_DDOT":0},{"OBJECT_NAME":"ONEWEB-0376","OBJECT_ID":"2021-090Z","EPOCH":"2025-07-31T04:19:10.792992","MEAN_MOTION":13.19726788,"ECCENTRICITY":0.0002019,"INCLINATION":87.9234,"RA_OF_ASC_NODE":8.7587,"ARG_OF_PERICENTER":88.1183,"MEAN_ANOMALY":272.0181,"EPHEMERIS_TYPE":0,"CLASSIFICATION_TYPE":"U","NORAD_CAT_ID":49302,"ELEMENT_SET_NO":999,"REV_AT_EPOCH":18539,"BSTAR":-0.00012333,"MEAN_MOTION_DOT":-3.6e-7,"MEAN_MOTION_DDOT":0},{"OBJECT_NAME":"ONEWEB-0377","OBJECT_ID":"2021-090AA","EPOCH":"2025-07-30T21:02:57.283296","MEAN_MOTION":13.2077135,"ECCENTRICITY":0.0001604,"INCLINATION":87.9294,"RA_OF_ASC_NODE":338.4473,"ARG_OF_PERICENTER":101.409,"MEAN_ANOMALY":258.7223,"EPHEMERIS_TYPE":0,"CLASSIFICATION_TYPE":"U","NORAD_CAT_ID":49303,"ELEMENT_SET_NO":999,"REV_AT_EPOCH":18810,"BSTAR":-0.00066928,"MEAN_MOTION_DOT":-2.59e-6,"MEAN_MOTION_DDOT":0},{"OBJECT_NAME":"ONEWEB-0378","OBJECT_ID":"2021-090AB","EPOCH":"2025-07-30T19:45:42.190272","MEAN_MOTION":13.20771543,"ECCENTRICITY":0.0001931,"INCLINATION":87.9301,"RA_OF_ASC_NODE":338.467,"ARG_OF_PERICENTER":102.6163,"MEAN_ANOMALY":257.5187,"EPHEMERIS_TYPE":0,"CLASSIFICATION_TYPE":"U","NORAD_CAT_ID":49304,"ELEMENT_SET_NO":999,"REV_AT_EPOCH":18736,"BSTAR":6.4448e-5,"MEAN_MOTION_DOT":3.9e-7,"MEAN_MOTION_DDOT":0},{"OBJECT_NAME":"ONEWEB-0379","OBJECT_ID":"2021-090AC","EPOCH":"2025-07-30T21:31:32.986848","MEAN_MOTION":13.14504415,"ECCENTRICITY":0.0001952,"INCLINATION":87.9067,"RA_OF_ASC_NODE":353.6364,"ARG_OF_PERICENTER":98.0406,"MEAN_ANOMALY":262.0945,"EPHEMERIS_TYPE":0,"CLASSIFICATION_TYPE":"U","NORAD_CAT_ID":49305,"ELEMENT_SET_NO":999,"REV_AT_EPOCH":18535,"BSTAR":-0.00025989,"MEAN_MOTION_DOT":-8.4e-7,"MEAN_MOTION_DDOT":0},{"OBJECT_NAME":"ONEWEB-0380","OBJECT_ID":"2021-090AD","EPOCH":"2025-07-31T04:14:37.157280","MEAN_MOTION":13.19726622,"ECCENTRICITY":0.000171,"INCLINATION":87.9232,"RA_OF_ASC_NODE":8.7881,"ARG_OF_PERICENTER":99.3587,"MEAN_ANOMALY":260.7739,"EPHEMERIS_TYPE":0,"CLASSIFICATION_TYPE":"U","NORAD_CAT_ID":49306,"ELEMENT_SET_NO":999,"REV_AT_EPOCH":18536,"BSTAR":2.8055e-5,"MEAN_MOTION_DOT":2.4e-7,"MEAN_MOTION_DDOT":0},{"OBJECT_NAME":"ONEWEB-0381","OBJECT_ID":"2021-090AE","EPOCH":"2025-07-31T09:41:50.029728","MEAN_MOTION":13.20771966,"ECCENTRICITY":0.0001888,"INCLINATION":87.9298,"RA_OF_ASC_NODE":338.3515,"ARG_OF_PERICENTER":107.3257,"MEAN_ANOMALY":252.8083,"EPHEMERIS_TYPE":0,"CLASSIFICATION_TYPE":"U","NORAD_CAT_ID":49307,"ELEMENT_SET_NO":999,"REV_AT_EPOCH":18878,"BSTAR":-0.00019285,"MEAN_MOTION_DOT":-6.5e-7,"MEAN_MOTION_DDOT":0},{"OBJECT_NAME":"ONEWEB-0382","OBJECT_ID":"2021-090AF","EPOCH":"2025-07-31T02:07:19.142400","MEAN_MOTION":13.20771366,"ECCENTRICITY":0.0002046,"INCLINATION":87.929,"RA_OF_ASC_NODE":338.4068,"ARG_OF_PERICENTER":107.7663,"MEAN_ANOMALY":252.3694,"EPHEMERIS_TYPE":0,"CLASSIFICATION_TYPE":"U","NORAD_CAT_ID":49308,"ELEMENT_SET_NO":999,"REV_AT_EPOCH":18874,"BSTAR":0.00023351,"MEAN_MOTION_DOT":1.08e-6,"MEAN_MOTION_DDOT":0},{"OBJECT_NAME":"ONEWEB-0383","OBJECT_ID":"2021-090AG","EPOCH":"2025-07-30T21:22:25.527072","MEAN_MOTION":13.14501924,"ECCENTRICITY":0.0001996,"INCLINATION":87.9066,"RA_OF_ASC_NODE":353.6172,"ARG_OF_PERICENTER":99.2699,"MEAN_ANOMALY":260.8657,"EPHEMERIS_TYPE":0,"CLASSIFICATION_TYPE":"U","NORAD_CAT_ID":49309,"ELEMENT_SET_NO":999,"REV_AT_EPOCH":18667,"BSTAR":-0.00048632,"MEAN_MOTION_DOT":-1.68e-6,"MEAN_MOTION_DDOT":0},{"OBJECT_NAME":"ONEWEB-0384","OBJECT_ID":"2021-090AH","EPOCH":"2025-07-31T02:00:58.872672","MEAN_MOTION":13.20787221,"ECCENTRICITY":0.0002285,"INCLINATION":87.9302,"RA_OF_ASC_NODE":338.4268,"ARG_OF_PERICENTER":110.5467,"MEAN_ANOMALY":249.5912,"EPHEMERIS_TYPE":0,"CLASSIFICATION_TYPE":"U","NORAD_CAT_ID":49310,"ELEMENT_SET_NO":999,"REV_AT_EPOCH":18875,"BSTAR":0.00014878,"MEAN_MOTION_DOT":7.3e-7,"MEAN_MOTION_DDOT":0},{"OBJECT_NAME":"ONEWEB-0385","OBJECT_ID":"2021-090AJ","EPOCH":"2025-07-30T20:28:39.993024","MEAN_MOTION":13.20771633,"ECCENTRICITY":0.0001962,"INCLINATION":87.9279,"RA_OF_ASC_NODE":338.469,"ARG_OF_PERICENTER":102.6671,"MEAN_ANOMALY":257.4682,"EPHEMERIS_TYPE":0,"CLASSIFICATION_TYPE":"U","NORAD_CAT_ID":49311,"ELEMENT_SET_NO":999,"REV_AT_EPOCH":18738,"BSTAR":7.7652e-5,"MEAN_MOTION_DOT":4.5e-7,"MEAN_MOTION_DDOT":0},{"OBJECT_NAME":"ONEWEB-0386","OBJECT_ID":"2021-090AK","EPOCH":"2025-07-30T20:53:39.689664","MEAN_MOTION":13.207726,"ECCENTRICITY":0.0002105,"INCLINATION":87.9289,"RA_OF_ASC_NODE":338.4368,"ARG_OF_PERICENTER":105.0638,"MEAN_ANOMALY":255.0729,"EPHEMERIS_TYPE":0,"CLASSIFICATION_TYPE":"U","NORAD_CAT_ID":49312,"ELEMENT_SET_NO":999,"REV_AT_EPOCH":18740,"BSTAR":-1.2296e-5,"MEAN_MOTION_DOT":8.0e-8,"MEAN_MOTION_DDOT":0},{"OBJECT_NAME":"ONEWEB-0387","OBJECT_ID":"2021-090AL","EPOCH":"2025-07-31T03:47:19.650912","MEAN_MOTION":13.20771134,"ECCENTRICITY":0.0001751,"INCLINATION":87.928,"RA_OF_ASC_NODE":338.4375,"ARG_OF_PERICENTER":108.2933,"MEAN_ANOMALY":251.8391,"EPHEMERIS_TYPE":0,"CLASSIFICATION_TYPE":"U","NORAD_CAT_ID":49313,"ELEMENT_SET_NO":999,"REV_AT_EPOCH":18875,"BSTAR":5.3585e-5,"MEAN_MOTION_DOT":3.5e-7,"MEAN_MOTION_DDOT":0},{"OBJECT_NAME":"ONEWEB-0388","OBJECT_ID":"2021-090AM","EPOCH":"2025-07-31T04:07:47.567712","MEAN_MOTION":13.1972667,"ECCENTRICITY":0.0001922,"INCLINATION":87.9237,"RA_OF_ASC_NODE":8.795,"ARG_OF_PERICENTER":98.5696,"MEAN_ANOMALY":261.5655,"EPHEMERIS_TYPE":0,"CLASSIFICATION_TYPE":"U","NORAD_CAT_ID":49314,"ELEMENT_SET_NO":999,"REV_AT_EPOCH":18536,"BSTAR":-0.00013542,"MEAN_MOTION_DOT":-4.1e-7,"MEAN_MOTION_DDOT":0},{"OBJECT_NAME":"ONEWEB-0389","OBJECT_ID":"2021-132A","EPOCH":"2025-07-30T20:05:03.279264","MEAN_MOTION":13.17650126,"ECCENTRICITY":0.0001539,"INCLINATION":87.9046,"RA_OF_ASC_NODE":69.829,"ARG_OF_PERICENTER":97.3116,"MEAN_ANOMALY":262.819,"EPHEMERIS_TYPE":0,"CLASSIFICATION_TYPE":"U","NORAD_CAT_ID":50469,"ELEMENT_SET_NO":999,"REV_AT_EPOCH":17576,"BSTAR":5.3932e-5,"MEAN_MOTION_DOT":3.4e-7,"MEAN_MOTION_DDOT":0},{"OBJECT_NAME":"ONEWEB-0390","OBJECT_ID":"2021-132B","EPOCH":"2025-07-31T03:24:52.424352","MEAN_MOTION":13.17649844,"ECCENTRICITY":0.0001548,"INCLINATION":87.9039,"RA_OF_ASC_NODE":69.7752,"ARG_OF_PERICENTER":77.8926,"MEAN_ANOMALY":282.2379,"EPHEMERIS_TYPE":0,"CLASSIFICATION_TYPE":"U","NORAD_CAT_ID":50470,"ELEMENT_SET_NO":999,"REV_AT_EPOCH":17709,"BSTAR":-5.7078e-5,"MEAN_MOTION_DOT":-9.0e-8,"MEAN_MOTION_DDOT":0},{"OBJECT_NAME":"ONEWEB-0391","OBJECT_ID":"2021-132C","EPOCH":"2025-07-30T21:59:15.119808","MEAN_MOTION":13.17650063,"ECCENTRICITY":0.0001128,"INCLINATION":87.904,"RA_OF_ASC_NODE":69.835,"ARG_OF_PERICENTER":110.0847,"MEAN_ANOMALY":250.0406,"EPHEMERIS_TYPE":0,"CLASSIFICATION_TYPE":"U","NORAD_CAT_ID":50471,"ELEMENT_SET_NO":999,"REV_AT_EPOCH":17577,"BSTAR":-0.00015375,"MEAN_MOTION_DOT":-4.7e-7,"MEAN_MOTION_DDOT":0},{"OBJECT_NAME":"ONEWEB-0392","OBJECT_ID":"2021-132D","EPOCH":"2025-07-30T20:53:38.702976","MEAN_MOTION":13.17649907,"ECCENTRICITY":0.000151,"INCLINATION":87.9036,"RA_OF_ASC_NODE":69.7879,"ARG_OF_PERICENTER":95.5329,"MEAN_ANOMALY":264.5974,"EPHEMERIS_TYPE":0,"CLASSIFICATION_TYPE":"U","NORAD_CAT_ID":50472,"ELEMENT_SET_NO":999,"REV_AT_EPOCH":17580,"BSTAR":-2.7951e-5,"MEAN_MOTION_DOT":2.0e-8,"MEAN_MOTION_DDOT":0},{"OBJECT_NAME":"ONEWEB-0393","OBJECT_ID":"2021-132E","EPOCH":"2025-07-30T20:14:58.125120","MEAN_MOTION":13.17649836,"ECCENTRICITY":0.000162,"INCLINATION":87.9045,"RA_OF_ASC_NODE":69.8119,"ARG_OF_PERICENTER":88.466,"MEAN_ANOMALY":271.6657,"EPHEMERIS_TYPE":0,"CLASSIFICATION_TYPE":"U","NORAD_CAT_ID":50473,"ELEMENT_SET_NO":999,"REV_AT_EPOCH":17579,"BSTAR":-0.00013698,"MEAN_MOTION_DOT":-4.0e-7,"MEAN_MOTION_DDOT":0},{"OBJECT_NAME":"ONEWEB-0394","OBJECT_ID":"2021-132F","EPOCH":"2025-07-31T01:32:39.227424","MEAN_MOTION":13.18688341,"ECCENTRICITY":0.0001773,"INCLINATION":87.9125,"RA_OF_ASC_NODE":39.2263,"ARG_OF_PERICENTER":95.0783,"MEAN_ANOMALY":265.0552,"EPHEMERIS_TYPE":0,"CLASSIFICATION_TYPE":"U","NORAD_CAT_ID":50474,"ELEMENT_SET_NO":999,"REV_AT_EPOCH":18054,"BSTAR":1.1934e-5,"MEAN_MOTION_DOT":1.8e-7,"MEAN_MOTION_DDOT":0}]
